{"type": "FeatureCollection", "features": [ {"type": "Feature", "properties": {"norad_id": 31056, "name": "FENGYUN 1C DEB", "group": "fengyun-1c-debris", "lat": -67.27604202055352, "lon": 134.377133213177, "alt_km": 847.044501559797, "timestamp": "2025-12-19T08:58:49.618654+00:00", "meta": {"OBJECT_NAME": "FENGYUN 1C DEB", "OBJECT_ID": "1999-025BFA", "EPOCH": "2025-12-18T10:27:05.770944", "MEAN_MOTION": 14.14314319, "ECCENTRICITY": 0.0025209, "INCLINATION": 98.6671, "RA_OF_ASC_NODE": 334.8253, "ARG_OF_PERICENTER": 326.3437, "MEAN_ANOMALY": 186.0528, "EPHEMERIS_TYPE": 0, "CLASSIFICATION_TYPE": "U", "NORAD_CAT_ID": 31056, "ELEMENT_SET_NO": 999, "REV_AT_EPOCH": 96898, "BSTAR": 0.00032091776, "MEAN_MOTION_DOT": 5.72e-06, "MEAN_MOTION_DDOT": 0}, "tle": {"line1": "1 31056U 99025BFA 25352.43548346  .00000572  00000+0  32092-3 0  9996", "line2": "2 31056  98.6671 334.8253 0025209 326.3437 186.0528 14.14314319968989"}}, "geometry": {"type": "Point", "coordinates": [134.377133213177, -67.27604202055352]}}, {"type": "Feature", "properties": {"norad_id": 31057, "name": "FENGYUN 1C DEB", "group": "fengyun-1c-debris", "lat": -72.5195820899921, "lon": -177.39379826085357, "alt_km": 549.57467643174, "timestamp": "2025-12-19T08:58:49.618664+00:00", "meta": {"OBJECT_NAME": "FENGYUN 1C DEB", "OBJECT_ID": "1999-025BFB", "EPOCH": "2025-12-07T08:31:09.738912", "MEAN_MOTION": 14.79274467, "ECCENTRICITY": 0.0137797, "INCLINATION": 99.2572, "RA_OF_ASC_NODE": 19.9678, "ARG_OF_PERICENTER": 268.7892, "MEAN_ANOMALY": 89.7526, "EPHEMERIS_TYPE": 0, "CLASSIFICATION_TYPE": "U", "NORAD_CAT_ID": 31057, "ELEMENT_SET_NO": 999, "REV_AT_EPOCH": 61873, "BSTAR": 0.0014079461, "MEAN_MOTION_DOT": 0.00012236, "MEAN_MOTION_DDOT": 0}, "tle": {"line1": "1 31057U 99025BFB 25341.35497383  .00012236  00000+0  14079-2 0  9994", "line2": "2 31057  99.2572  19.9678 0137797 268.7892  89.7526 14.79274467618731"}}, "geometry": {"type": "Point", "coordinates": [-177.39379826085357, -72.5195820899921]}}, {"type": "Feature", "properties": {"norad_id": 31058, "name": "FENGYUN 1C DEB", "group": "fengyun-1c-debris", "lat": -15.264431319538266, "lon": -53.50011409885629, "alt_km": 657.7631582981112, "timestamp": "2025-12-19T08:58:49.618674+00:00", "meta": {"OBJECT_NAME": "FENGYUN 1C DEB", "OBJECT_ID": "1999-025BFC", "EPOCH": "2025-12-16T02:58:40.790208", "MEAN_MOTION": 14.76385541, "ECCENTRICITY": 0.00951524, "INCLINATION": 99.5654, "RA_OF_ASC_NODE": 300.0182, "ARG_OF_PERICENTER": 95.8616, "MEAN_ANOMALY": 265.3444, "EPHEMERIS_TYPE": 0, "CLASSIFICATION_TYPE": "U", "NORAD_CAT_ID": 31058, "ELEMENT_SET_NO": 999, "REV_AT_EPOCH": 99599, "BSTAR": 0.00080135527, "MEAN_MOTION_DOT": 5.927e-05, "MEAN_MOTION_DDOT": 0}, "tle": {"line1": "1 31058U 99025BFC 25350.12408322  .00005927  00000+0  80136-3 0  9992", "line2": "2 31058  99.5654 300.0182 0095152  95.8616 265.3444 14.76385541995991"}}, "geometry": {"type": "Point", "coordinates": [-53.50011409885629, -15.264431319538266]}}, {"type": "Feature", "properties": {"norad_id": 31062, "name": "FENGYUN 1C DEB", "group": "fengyun-1c-debris", "lat": -80.81694609129102, "lon": -106.09899924250279, "alt_km": 874.9948018174837, "timestamp": "2025-12-19T08:58:49.618684+00:00", "meta": {"OBJECT_NAME": "FENGYUN 1C DEB", "OBJECT_ID": "1999-025BFG", "EPOCH": "2025-12-17T19:04:10.170624", "MEAN_MOTION": 13.75694526, "ECCENTRICITY": 0.01715398, "INCLINATION": 98.9965, "RA_OF_ASC_NODE": 173.9043, "ARG_OF_PERICENTER": 304.4147, "MEAN_ANOMALY": 69.4412, "EPHEMERIS_TYPE": 0, "CLASSIFICATION_TYPE": "U", "NORAD_CAT_ID": 31062, "ELEMENT_SET_NO": 999, "REV_AT_EPOCH": 94303, "BSTAR": 0.00025609308, "MEAN_MOTION_DOT": 2.33e-06, "MEAN_MOTION_DDOT": 0}, "tle": {"line1": "1 31062U 99025BFG 25351.79456216  .00000233  00000+0  25609-3 0  9995", "line2": "2 31062  98.9965 173.9043 0171539 304.4147  69.4412 13.75694526943039"}}, "geometry": {"type": "Point", "coordinates": [-106.09899924250279, -80.81694609129102]}}, {"type": "Feature", "properties": {"norad_id": 31064, "name": "FENGYUN 1C DEB", "group": "fengyun-1c-debris", "lat": 79.75955284211796, "lon": -147.4855807149227, "alt_km": 875.6423504944887, "timestamp": "2025-12-19T08:58:49.618695+00:00", "meta": {"OBJECT_NAME": "FENGYUN 1C DEB", "OBJECT_ID": "1999-025BFJ", "EPOCH": "2025-12-17T16:51:38.215296", "MEAN_MOTION": 14.22146869, "ECCENTRICITY": 0.02411952, "INCLINATION": 98.5744, "RA_OF_ASC_NODE": 334.2562, "ARG_OF_PERICENTER": 347.208, "MEAN_ANOMALY": 192.2387, "EPHEMERIS_TYPE": 0, "CLASSIFICATION_TYPE": "U", "NORAD_CAT_ID": 31064, "ELEMENT_SET_NO": 999, "REV_AT_EPOCH": 97325, "BSTAR": 0.00032389847, "MEAN_MOTION_DOT": 9.17e-06, "MEAN_MOTION_DDOT": 0}, "tle": {"line1": "1 31064U 99025BFJ 25351.70252564  .00000917  00000+0  32390-3 0  9992", "line2": "2 31064  98.5744 334.2562 0241195 347.2080 192.2387 14.22146869973255"}}, "geometry": {"type": "Point", "coordinates": [-147.4855807149227, 79.75955284211796]}}, {"type": "Feature", "properties": {"norad_id": 31065, "name": "FENGYUN 1C DEB", "group": "fengyun-1c-debris", "lat": 12.380765984509738, "lon": -165.84520022733864, "alt_km": 821.7605165971045, "timestamp": "2025-12-19T08:58:49.618705+00:00", "meta": {"OBJECT_NAME": "FENGYUN 1C DEB", "OBJECT_ID": "1999-025BFK", "EPOCH": "2025-12-17T19:12:35.367840", "MEAN_MOTION": 14.28196453, "ECCENTRICITY": 0.00349818, "INCLINATION": 98.4658, "RA_OF_ASC_NODE": 10.7553, "ARG_OF_PERICENTER": 16.5236, "MEAN_ANOMALY": 343.7078, "EPHEMERIS_TYPE": 0, "CLASSIFICATION_TYPE": "U", "NORAD_CAT_ID": 31065, "ELEMENT_SET_NO": 999, "REV_AT_EPOCH": 64650, "BSTAR": 0.00070750012, "MEAN_MOTION_DOT": 1.731e-05, "MEAN_MOTION_DDOT": 0}, "tle": {"line1": "1 31065U 99025BFK 25351.80040935  .00001731  00000+0  70750-3 0  9998", "line2": "2 31065  98.4658  10.7553 0034981  16.5236 343.7078 14.28196453646502"}}, "geometry": {"type": "Point", "coordinates": [-165.84520022733864, 12.380765984509738]}}, {"type": "Feature", "properties": {"norad_id": 31068, "name": "FENGYUN 1C DEB", "group": "fengyun-1c-debris", "lat": 64.2466708876536, "lon": 173.6152721485678, "alt_km": 739.6097710521526, "timestamp": "2025-12-19T08:58:49.618715+00:00", "meta": {"OBJECT_NAME": "FENGYUN 1C DEB", "OBJECT_ID": "1999-025BFN", "EPOCH": "2025-12-18T05:11:10.079232", "MEAN_MOTION": 14.09194848, "ECCENTRICITY": 0.01658276, "INCLINATION": 98.6292, "RA_OF_ASC_NODE": 334.1581, "ARG_OF_PERICENTER": 102.7701, "MEAN_ANOMALY": 259.2059, "EPHEMERIS_TYPE": 0, "CLASSIFICATION_TYPE": "U", "NORAD_CAT_ID": 31068, "ELEMENT_SET_NO": 999, "REV_AT_EPOCH": 96432, "BSTAR": 9.338264e-05, "MEAN_MOTION_DOT": 1.44e-06, "MEAN_MOTION_DDOT": 0}, "tle": {"line1": "1 31068U 99025BFN 25352.21608888  .00000144  00000+0  93383-4 0  9999", "line2": "2 31068  98.6292 334.1581 0165827 102.7701 259.2059 14.09194848964322"}}, "geometry": {"type": "Point", "coordinates": [173.6152721485678, 64.2466708876536]}}, {"type": "Feature", "properties": {"norad_id": 31069, "name": "FENGYUN 1C DEB", "group": "fengyun-1c-debris", "lat": 8.34962605001375, "lon": -24.382934651260474, "alt_km": 733.6773144470271, "timestamp": "2025-12-19T08:58:49.618725+00:00", "meta": {"OBJECT_NAME": "FENGYUN 1C DEB", "OBJECT_ID": "1999-025BFP", "EPOCH": "2025-12-15T06:58:24.353760", "MEAN_MOTION": 14.57126924, "ECCENTRICITY": 0.01044954, "INCLINATION": 99.0991, "RA_OF_ASC_NODE": 149.8113, "ARG_OF_PERICENTER": 69.7479, "MEAN_ANOMALY": 291.4914, "EPHEMERIS_TYPE": 0, "CLASSIFICATION_TYPE": "U", "NORAD_CAT_ID": 31069, "ELEMENT_SET_NO": 999, "REV_AT_EPOCH": 98723, "BSTAR": 0.00048052273, "MEAN_MOTION_DOT": 2.275e-05, "MEAN_MOTION_DDOT": 0}, "tle": {"line1": "1 31069U 99025BFP 25349.29055965  .00002275  00000+0  48052-3 0  9995", "line2": "2 31069  99.0991 149.8113 0104495  69.7479 291.4914 14.57126924987230"}}, "geometry": {"type": "Point", "coordinates": [-24.382934651260474, 8.34962605001375]}}, {"type": "Feature", "properties": {"norad_id": 31071, "name": "FENGYUN 1C DEB", "group": "fengyun-1c-debris", "lat": 19.689176944120767, "lon": -105.10258187465227, "alt_km": 724.835006272895, "timestamp": "2025-12-19T08:58:49.618735+00:00", "meta": {"OBJECT_NAME": "FENGYUN 1C DEB", "OBJECT_ID": "1999-025BFR", "EPOCH": "2025-12-17T11:36:27.822240", "MEAN_MOTION": 14.52669079, "ECCENTRICITY": 0.00558821, "INCLINATION": 99.0414, "RA_OF_ASC_NODE": 69.5951, "ARG_OF_PERICENTER": 267.3702, "MEAN_ANOMALY": 92.1094, "EPHEMERIS_TYPE": 0, "CLASSIFICATION_TYPE": "U", "NORAD_CAT_ID": 31071, "ELEMENT_SET_NO": 999, "REV_AT_EPOCH": 65563, "BSTAR": 0.00084122866, "MEAN_MOTION_DOT": 3.464e-05, "MEAN_MOTION_DDOT": 0}, "tle": {"line1": "1 31071U 99025BFR 25351.48365535  .00003464  00000+0  84123-3 0  9999", "line2": "2 31071  99.0414  69.5951 0055882 267.3702  92.1094 14.52669079655630"}}, "geometry": {"type": "Point", "coordinates": [-105.10258187465227, 19.689176944120767]}}, {"type": "Feature", "properties": {"norad_id": 31072, "name": "FENGYUN 1C DEB", "group": "fengyun-1c-debris", "lat": 79.14727995028181, "lon": -121.74680318855759, "alt_km": 654.3447672470302, "timestamp": "2025-12-19T08:58:49.618746+00:00", "meta": {"OBJECT_NAME": "FENGYUN 1C DEB", "OBJECT_ID": "1999-025BFS", "EPOCH": "2025-12-16T18:13:11.315136", "MEAN_MOTION": 14.25497382, "ECCENTRICITY": 0.02103656, "INCLINATION": 99.3328, "RA_OF_ASC_NODE": 356.4011, "ARG_OF_PERICENTER": 86.3068, "MEAN_ANOMALY": 276.2137, "EPHEMERIS_TYPE": 0, "CLASSIFICATION_TYPE": "U", "NORAD_CAT_ID": 31072, "ELEMENT_SET_NO": 999, "REV_AT_EPOCH": 96700, "BSTAR": 0.00047345897, "MEAN_MOTION_DOT": 1.358e-05, "MEAN_MOTION_DDOT": 0}, "tle": {"line1": "1 31072U 99025BFS 25350.75915874  .00001358  00000+0  47346-3 0  9992", "line2": "2 31072  99.3328 356.4011 0210365  86.3068 276.2137 14.25497382967002"}}, "geometry": {"type": "Point", "coordinates": [-121.74680318855759, 79.14727995028181]}}]}